KUIPER-00027            
1 63740U 25088S   25197.89533952  .00011833  00000+0  32280-3 0  9994
2 63740  51.8708  76.4236 0002247  69.9124 290.2105 15.37874990 12448
KUIPER-00028            
1 63741U 25088T   25197.88720367  .00011689  00000+0  31790-3 0  9996
2 63741  51.8702  76.3670 0001938  55.5066 304.6104 15.37980871 12856
KUIPER-00029            
1 63742U 25088U   25197.93401290  .00010631  00000+0  30136-3 0  9993
2 63742  51.8694  76.6628 0005172  47.5612 312.5811 15.36789007 12383
KUIPER-00030            
1 63743U 25088V   25197.91668981 -.00017259  00000+0 -78655-3 0  9997
2 63743  51.8797  79.0011 0010933  31.8806 233.1998 15.19549523  5354
KUIPER-00031            
1 63744U 25088W   25197.90730404  .00008800  00000+0  24577-3 0  9991
2 63744  51.8693  76.4931 0004288  44.2039 315.9289 15.37494113 12381
KUIPER-00032            
1 63745U 25088X   25197.92235516  .00006483  00000+0  18539-3 0  9994
2 63745  51.8697  76.5826 0004854  33.5574 326.5720 15.37239550 13385
KUIPER-00033            
1 63746U 25088Y   25197.94739657  .00000279  00000+0  65819-4 0  9993
2 63746  51.9015  89.0399 0003462 104.7646 255.3700 14.79816538 12692
KUIPER-00034            
1 63747U 25088Z   25197.88941819  .00009431  00000+0  26155-3 0  9990
2 63747  51.8707  76.3828 0002413  64.3335 295.7901 15.37623503 12545
